SAR-LUPE 2              
1 31797U 07030A   26160.53267876  .00034666  00000+0  64114-3 0  9999
2 31797  98.1023 264.0250 0007517 149.9367 210.2314 15.48947770 55757
SAPPHIRE                
1 39088U 13009C   26160.49321317  .00000103  00000+0  50860-4 0  9992
2 39088  98.4259 340.1319 0009975 272.3471  87.6573 14.35238398695477
PRAETORIAN SDA_602      
1 65565U 25203A   26160.36278770  .00000040  00000+0  25241-4 0  9995
2 65565  81.3036  18.0174 0005379 206.5269 153.5613 13.84342083 37612
PRAETORIAN SDA_603      
1 65566U 25203B   26160.31470319  .00000066  00000+0  49254-4 0  9992
2 65566  81.3041  17.9732 0008924 209.7479 150.3171 13.83905184 37614
PRAETORIAN SDA_604      
1 65567U 25203C   26160.32954235  .00000091  00000+0  72256-4 0  9994
2 65567  81.3058  18.3596 0004877 215.0779 145.0056 13.83046952 37591
PRAETORIAN SDA_605      
1 65568U 25203D   26160.29706865  .00000055  00000+0  39173-4 0  9996
2 65568  81.3023  18.0601 0007686 205.2325 154.8456 13.83433725 37609
PRAETORIAN SDA_606      
1 65569U 25203E   26160.35178822  .00000054  00000+0  38541-4 0  9997
2 65569  81.3059  18.2281 0005303 203.3685 156.7231 13.83406606 37607
PRAETORIAN SDA_607      
1 65570U 25203F   26160.36478185  .00000191  00000+0  16010-3 0  9993
2 65570  81.3041  17.8913 0008240 209.5552 150.5140 13.84283404 37624
PRAETORIAN SDA_608      
1 65571U 25203G   26160.33954060  .00000073  00000+0  55426-4 0  9996
2 65571  81.3011  18.0735 0005394 214.0388 146.0423 13.83816320 37602
PRAETORIAN SDA_609      
1 65572U 25203H   26160.34681117  .00000177  00000+0  14772-3 0  9991
2 65572  81.3055  18.0514 0006339 206.8411 153.2419 13.84284842 37617
PRAETORIAN SDA_610      
1 65573U 25203J   26160.31949449  .00000046  00000+0  31032-4 0  9998
2 65573  81.3013  18.0502 0006055 211.1130 148.9668 13.83851366 37607
PRAETORIAN SDA_611      
1 65574U 25203K   26160.31719147  .00000128  00000+0  10539-3 0  9998
2 65574  81.3025  18.2124 0004916 216.8644 143.2175 13.83306916 37594
PRAETORIAN SDA_612      
1 65575U 25203L   26160.31662514  .00000118  00000+0  93681-4 0  9993
2 65575  81.3035  17.8180 0008669 209.1461 150.9214 13.85038445 37628
PRAETORIAN SDA_613      
1 65576U 25203M   26160.10376812  .00000043  00000+0  28800-4 0  9992
2 65576  81.3005  18.3997 0005144 207.2992 152.7894 13.82764442 37568
PRAETORIAN SDA_614      
1 65577U 25203N   26160.30432022  .00000048  00000+0  31770-4 0  9996
2 65577  81.3019  17.9048 0006618 206.0713 154.0112 13.84777791 37629
PRAETORIAN SDA_615      
1 65578U 25203P   26160.06244767  .00000207  00000+0  17403-3 0  9990
2 65578  81.3027  18.0880 0008477 208.6209 151.4483 13.84435865 37588
PRAETORIAN SDA_616      
1 65579U 25203Q   26160.31616943  .00000087  00000+0  68332-4 0  9992
2 65579  81.3069  18.3526 0004844 215.7184 144.3649 13.83267340 37596
PRAETORIAN SDA_617      
1 65580U 25203R   26160.33710333  .00000045  00000+0  30350-4 0  9997
2 65580  81.3041  18.1651 0006848 206.5712 153.5094 13.83149911 37607
PRAETORIAN SDA_618      
1 65581U 25203S   26160.31890096  .00000234  00000+0  19753-3 0  9994
2 65581  81.3027  17.7833 0009167 210.0612 150.0019 13.84668212 37627
PRAETORIAN SDA_619      
1 65582U 25203T   26160.34994142  .00000146  00000+0  12101-3 0  9997
2 65582  81.3049  18.0391 0007631 207.9157 152.1591 13.83805084 38244
PRAETORIAN SDA_620      
1 65583U 25203U   26160.30455580  .00000146  00000+0  12160-3 0  9997
2 65583  81.3036  18.1006 0007104 203.1797 156.9040 13.83617614 37608
PRAETORIAN SDA_621      
1 65584U 25203V   26160.35168961  .00000076  00000+0  57818-4 0  9999
2 65584  81.3025  17.9780 0006936 200.7141 159.3735 13.83800775 37612
PRAETORIAN SDA_601      
1 65585U 25203W   26160.31873534 -.00000004  00000+0 -14852-4 0  9999
2 65585  81.3051  18.2960 0004841 219.4278 140.6527 13.83166574 37598
